COSMOS 2425 (716)       
1 29670U 06062A   18084.31521200  .00000040  00000-0  10000-3 0  9991
2 29670  65.3205 295.3722 0022449 350.6975 176.9131  2.13104953 87521
COSMOS 2426 (717)       
1 29671U 06062B   18084.74401374  .00000041  00000-0  10000-3 0  9999
2 29671  65.3380 295.4525 0016747 158.2413 194.6916  2.13103057 87534
COSMOS 2433 (720)       
1 32275U 07052A   18084.66800999  .00000006  00000-0  10000-3 0  9991
2 32275  65.6504  56.1635 0005105 283.9341 345.9523  2.13104704 81040
COSMOS 2432 (719)       
1 32276U 07052B   18084.73467894  .00000006  00000-0  10000-3 0  9993
2 32276  65.6634  56.2368 0013712 328.4030 304.7644  2.13104053 81046
COSMOS 2434 (721)       
1 32393U 07065A   18084.79916080  .00000041  00000-0  00000-0 0  9994
2 32393  64.9360 294.3690 0005462  90.6118 168.1856  2.13102955 79756
COSMOS 2436 (723)       
1 32395U 07065C   18084.89138380  .00000041  00000-0  10000-3 0  9990
2 32395  64.9457 294.4151 0016559   5.9774  13.6507  2.13104281 79698
COSMOS 2456 (730)       
1 36111U 09070A   18084.35627322 -.00000012  00000-0  00000-0 0  9993
2 36111  64.1832 173.9665 0004326 316.9152 134.1397  2.13102869 64412
COSMOS 2457 (733)       
1 36112U 09070B   18084.60565196 -.00000014  00000-0  00000-0 0  9994
2 36112  64.1655 173.8701 0006021 167.4223 242.2351  2.13101547 64422
COSMOS 2458 (734)       
1 36113U 09070C   18084.85575375 -.00000016  00000-0  10000-3 0  9998
2 36113  64.1697 173.8725 0001753  13.0216 276.8228  2.13102157 64424
COSMOS 2459 (731)       
1 36400U 10007A   18084.76374156  .00000003  00000-0  10000-3 0  9998
2 36400  65.5590  55.2304 0028960 347.6879 215.2457  2.13102292 62773
COSMOS 2461 (735)       
1 36401U 10007B   18084.70173500  .00000003  00000-0  10000-3 0  9993
2 36401  65.5528  55.2101 0005772  41.2900  24.6609  2.13102283 62779
COSMOS 2460 (732)       
1 36402U 10007C   18084.93454219  .00000002  00000-0  10000-3 0  9997
2 36402  65.5404  55.1703 0002836 310.5149 334.8487  2.13101751 62774
COSMOS 2464 (736)       
1 37139U 10041C   18084.69796694  .00000040  00000-0  00000-0 0  9990
2 37139  64.5400 294.2208 0025491  14.9881  33.9603  2.13102743 58845
COSMOS 2471 (701K)      
1 37372U 11009A   18084.73467894  .00000003  00000-0  00000-0 0  9995
2 37372  65.5402  55.1231 0009046 245.9840  28.2358  2.13107701 55048
COSMOS 2474 (742)       
1 37829U 11055A   18084.57478313 -.00000014  00000-0  00000-0 0  9996
2 37829  64.5079 174.6419 0008415 248.1087 229.1067  2.13101882 50415
COSMOS 2476 (744)       
1 37867U 11064A   18084.72183550 -.00000015  00000-0  00000-0 0  9992
2 37867  64.4875 174.7004 0017953 241.8026  34.2460  2.13102000 49762
COSMOS 2477 (745)       
1 37868U 11064B   18084.64707375 -.00000015  00000-0  00000-0 0  9991
2 37868  64.4947 174.7499 0015747 243.0652 154.5852  2.13101743 49729
COSMOS 2475 (743)       
1 37869U 11064C   18084.77020567 -.00000015  00000-0  00000-0 0  9997
2 37869  64.5027 174.7406 0020188 268.7074 180.0463  2.13101885 49735
COSMOS 2485 (747)       
1 39155U 13019A   18084.78976527 -.00000015  00000-0  00000-0 0  9996
2 39155  64.6560 174.7886 0018441 236.9330 136.1475  2.13101961 38245
COSMOS 2492 (754)       
1 39620U 14012A   18084.60312108  .00000003  00000-0  10000-3 0  9997
2 39620  65.4313  55.0778 0017117 325.8696 298.6857  2.13103511 31187
COSMOS 2500 (755)       
1 40001U 14032A   18084.80328644  .00000002  00000-0  00000-0 0  9993
2 40001  65.3726  55.0466 0006238 234.2689  46.2777  2.13102865 29401
COSMOS 2501 (702K)      
1 40315U 14075A   18084.75238278  .00000037  00000-0  00000-0 0  9993
2 40315  64.2660 295.4598 0014065 205.6622 198.4106  2.13098552 25810
COSMOS 2514 (751)       
1 41330U 16008A   18084.41890416  .00000004  00000-0  00000-0 0  9994
2 41330  65.1740  55.1348 0009816 233.2336 293.1340  2.13103374 16562
COSMOS 2516 (753)       
1 41554U 16032A   18084.49483714  .00000038  00000-0  00000-0 0  9993
2 41554  64.4873 295.3134 0009831 218.1319 257.8764  2.13101773 14173
COSMOS 2522 (752)       
1 42939U 17055A   18084.77703421  .00000039  00000-0  00000-0 0  9999
2 42939  64.7164 295.2439 0005270 255.7388 303.1771  2.13101981  3936
